STARLINK-3109
1 19143C 21082P   21326.12900611 -.00037564  00000-0 -31484-3 0  3262
2 19143  69.9994 292.9113 0003671 287.0395  32.3416 15.69771859    15
